ONEWEB-0350             
1 49214U 21083AE  25308.16825492  .00000126  00000+0  30971-3 0  9990
2 49214  87.9028   4.9457 0001893  89.4484 270.6862 13.13470126201397
ONEWEB-0351             
1 49215U 21083AF  25308.03426130 -.00000055  00000+0 -16631-3 0  9993
2 49215  87.9190 319.3399 0002715  96.3107 263.8336 13.20770900207059
ONEWEB-0352             
1 49216U 21083AG  25308.14879288  .00000362  00000+0  95708-3 0  9993
2 49216  87.9016   4.9765 0002281 101.5385 258.6000 13.13469201201488
ONEWEB-0354             
1 49217U 21083AH  25308.13541024  .00000067  00000+0  13289-3 0  9993
2 49217  87.9197 319.3188 0001870  83.1658 276.9688 13.20771272207104
ONEWEB-0355             
1 49218U 21083AJ  25308.10153295 -.00000140  00000+0 -41777-3 0  9997
2 49218  87.9023   4.9978 0002060  95.2347 264.9018 13.13469166201351
ONEWEB-0357             
1 49219U 21083AK  25308.13225500  .00000068  00000+0  13428-3 0  9999
2 49219  87.9188 319.3162 0002018  90.5947 269.5418 13.20771496207103
ONEWEB-0332             
1 49279U 21090A   25308.13834950  .00000162  00000+0  40193-3 0  9992
2 49279  87.8994 334.5557 0001974 101.8675 258.2676 13.14503231198017
ONEWEB-0347             
1 49280U 21090B   25308.12277310 -.00000112  00000+0 -30712-3 0  9997
2 49280  87.9185 319.3311 0001795 102.7815 257.3519 13.20769736201335
